QIANFAN-86              
1 63172U 25046P   26064.65544828  .00000209  00000+0  30583-3 0  9998
2 63172  88.9762 311.2218 0009272 252.1181 107.8959 13.51001642 58745
QIANFAN-87              
1 63173U 25046Q   26064.62672722  .00000211  00000+0  30757-3 0  9997
2 63173  88.9758 311.3331 0009961 246.4376 113.5730 13.51009924 58679
QIANFAN-88              
1 63174U 25046R   26064.64305086  .00000210  00000+0  30730-3 0  9996
2 63174  88.9761 311.2882 0010337 256.1784 103.8217 13.50998303 58707
QIANFAN-89              
1 63175U 25046S   26064.60617697  .00000199  00000+0  29032-3 0  9996
2 63175  88.9761 311.4811 0014825 245.4599 114.5007 13.51008801 58592
QIANFAN-90              
1 63176U 25046T   26064.63501235  .00000224  00000+0  32787-3 0  9990
2 63176  88.9761 311.4506 0011795 243.2879 116.7066 13.51008679 58619
QIANFAN-91              
1 66033U 25233A   26064.59348835  .00000037  00000+0  39278-4 0  9998
2 66033  88.9930  53.6636 0001944  92.3347 267.8026 13.51004525 19199
QIANFAN-92              
1 66034U 25233B   26064.60165491  .00000025  00000+0  20389-4 0  9996
2 66034  88.9914  53.6515 0001932  85.8432 274.2940 13.51005929 19193
QIANFAN-93              
1 66035U 25233C   26064.60988796  .00000029  00000+0  26592-4 0  9994
2 66035  88.9941  53.6745 0001920  90.7388 269.3983 13.51004906 19197
QIANFAN-94              
1 66036U 25233D   26064.59738545  .00000030  00000+0  28147-4 0  9998
2 66036  88.9937  53.5825 0002049  87.9602 272.1784 13.50991904 19240
QIANFAN-95              
1 66037U 25233E   26064.60564089  .00000027  00000+0  23315-4 0  9999
2 66037  88.9935  53.1279 0002058  93.4366 266.7020 13.51015275 19495
QIANFAN-96              
1 66038U 25233F   26064.55644315  .00000043  00000+0  48228-4 0  9993
2 66038  88.9932  53.6790 0001941  94.5886 265.5487 13.51004743 19183
QIANFAN-97              
1 66039U 25233G   26064.61403381  .00000030  00000+0  28214-4 0  9996
2 66039  88.9935  53.6538 0001943  92.1104 268.0269 13.51004102 19204
QIANFAN-98              
1 66040U 25233H   26064.62221060  .00000047  00000+0  53715-4 0  9993
2 66040  88.9925  53.3951 0002451  85.2548 274.8883 13.51004595 19349
QIANFAN-99              
1 66041U 25233J   26064.55230959  .00000041  00000+0  45270-4 0  9994
2 66041  88.9936  53.6634 0002350  88.7228 271.4192 13.51004856 19193
QIANFAN-100             
1 66042U 25233K   26064.61811491  .00000063  00000+0  79736-4 0  9996
2 66042  88.9947  53.5721 0001916  91.4042 268.7329 13.51005729 19252
QIANFAN-101             
1 66043U 25233L   26064.56770752  .00000741  00000+0  29967-3 0  9998
2 66043  88.9936  52.4599 0016883 119.1172 241.1715 14.26734527 19851
QIANFAN-102             
1 66044U 25233M   26064.63855793  .00000025  00000+0  19820-4 0  9999
2 66044  88.9934  53.5666 0002101  88.4642 271.6750 13.50992450 19253
