[{"OBJECT_NAME":"QIANFAN-86","OBJECT_ID":"2025-046P","EPOCH":"2026-03-05T15:43:50.731392","MEAN_MOTION":13.51001642,"ECCENTRICITY":0.00092729,"INCLINATION":88.9762,"RA_OF_ASC_NODE":311.2218,"ARG_OF_PERICENTER":252.1181,"MEAN_ANOMALY":107.8959,"EPHEMERIS_TYPE":0,"CLASSIFICATION_TYPE":"U","NORAD_CAT_ID":63172,"ELEMENT_SET_NO":999,"REV_AT_EPOCH":5874,"BSTAR":0.00030583296,"MEAN_MOTION_DOT":2.09e-6,"MEAN_MOTION_DDOT":0},{"OBJECT_NAME":"QIANFAN-87","OBJECT_ID":"2025-046Q","EPOCH":"2026-03-05T15:02:29.231808","MEAN_MOTION":13.51009924,"ECCENTRICITY":0.0009961,"INCLINATION":88.9758,"RA_OF_ASC_NODE":311.3331,"ARG_OF_PERICENTER":246.4376,"MEAN_ANOMALY":113.573,"EPHEMERIS_TYPE":0,"CLASSIFICATION_TYPE":"U","NORAD_CAT_ID":63173,"ELEMENT_SET_NO":999,"REV_AT_EPOCH":5867,"BSTAR":0.00030756915,"MEAN_MOTION_DOT":2.11e-6,"MEAN_MOTION_DDOT":0},{"OBJECT_NAME":"QIANFAN-88","OBJECT_ID":"2025-046R","EPOCH":"2026-03-05T15:25:59.594304","MEAN_MOTION":13.50998303,"ECCENTRICITY":0.00103379,"INCLINATION":88.9761,"RA_OF_ASC_NODE":311.2882,"ARG_OF_PERICENTER":256.1784,"MEAN_ANOMALY":103.8217,"EPHEMERIS_TYPE":0,"CLASSIFICATION_TYPE":"U","NORAD_CAT_ID":63174,"ELEMENT_SET_NO":999,"REV_AT_EPOCH":5870,"BSTAR":0.00030729564,"MEAN_MOTION_DOT":2.1e-6,"MEAN_MOTION_DDOT":0},{"OBJECT_NAME":"QIANFAN-89","OBJECT_ID":"2025-046S","EPOCH":"2026-03-05T14:32:53.690208","MEAN_MOTION":13.51008801,"ECCENTRICITY":0.00148257,"INCLINATION":88.9761,"RA_OF_ASC_NODE":311.4811,"ARG_OF_PERICENTER":245.4599,"MEAN_ANOMALY":114.5007,"EPHEMERIS_TYPE":0,"CLASSIFICATION_TYPE":"U","NORAD_CAT_ID":63175,"ELEMENT_SET_NO":999,"REV_AT_EPOCH":5859,"BSTAR":0.00029031779,"MEAN_MOTION_DOT":1.99e-6,"MEAN_MOTION_DDOT":0},{"OBJECT_NAME":"QIANFAN-90","OBJECT_ID":"2025-046T","EPOCH":"2026-03-05T15:14:25.067040","MEAN_MOTION":13.51008679,"ECCENTRICITY":0.0011795,"INCLINATION":88.9761,"RA_OF_ASC_NODE":311.4506,"ARG_OF_PERICENTER":243.2879,"MEAN_ANOMALY":116.7066,"EPHEMERIS_TYPE":0,"CLASSIFICATION_TYPE":"U","NORAD_CAT_ID":63176,"ELEMENT_SET_NO":999,"REV_AT_EPOCH":5861,"BSTAR":0.00032786594,"MEAN_MOTION_DOT":2.24e-6,"MEAN_MOTION_DDOT":0},{"OBJECT_NAME":"QIANFAN-91","OBJECT_ID":"2025-233A","EPOCH":"2026-03-05T14:14:37.393440","MEAN_MOTION":13.51004525,"ECCENTRICITY":0.00019441,"INCLINATION":88.993,"RA_OF_ASC_NODE":53.6636,"ARG_OF_PERICENTER":92.3347,"MEAN_ANOMALY":267.8026,"EPHEMERIS_TYPE":0,"CLASSIFICATION_TYPE":"U","NORAD_CAT_ID":66033,"ELEMENT_SET_NO":999,"REV_AT_EPOCH":1919,"BSTAR":3.9277593e-5,"MEAN_MOTION_DOT":3.7e-7,"MEAN_MOTION_DDOT":0},{"OBJECT_NAME":"QIANFAN-92","OBJECT_ID":"2025-233B","EPOCH":"2026-03-05T14:26:22.984224","MEAN_MOTION":13.51005929,"ECCENTRICITY":0.00019327,"INCLINATION":88.9914,"RA_OF_ASC_NODE":53.6515,"ARG_OF_PERICENTER":85.8432,"MEAN_ANOMALY":274.294,"EPHEMERIS_TYPE":0,"CLASSIFICATION_TYPE":"U","NORAD_CAT_ID":66034,"ELEMENT_SET_NO":999,"REV_AT_EPOCH":1919,"BSTAR":2.03894e-5,"MEAN_MOTION_DOT":2.5e-7,"MEAN_MOTION_DDOT":0},{"OBJECT_NAME":"QIANFAN-93","OBJECT_ID":"2025-233C","EPOCH":"2026-03-05T14:38:14.319744","MEAN_MOTION":13.51004906,"ECCENTRICITY":0.00019205,"INCLINATION":88.9941,"RA_OF_ASC_NODE":53.6745,"ARG_OF_PERICENTER":90.7388,"MEAN_ANOMALY":269.3983,"EPHEMERIS_TYPE":0,"CLASSIFICATION_TYPE":"U","NORAD_CAT_ID":66035,"ELEMENT_SET_NO":999,"REV_AT_EPOCH":1919,"BSTAR":2.6592245e-5,"MEAN_MOTION_DOT":2.9e-7,"MEAN_MOTION_DDOT":0},{"OBJECT_NAME":"QIANFAN-94","OBJECT_ID":"2025-233D","EPOCH":"2026-03-05T14:20:14.102880","MEAN_MOTION":13.50991904,"ECCENTRICITY":0.00020494,"INCLINATION":88.9937,"RA_OF_ASC_NODE":53.5825,"ARG_OF_PERICENTER":87.9602,"MEAN_ANOMALY":272.1784,"EPHEMERIS_TYPE":0,"CLASSIFICATION_TYPE":"U","NORAD_CAT_ID":66036,"ELEMENT_SET_NO":999,"REV_AT_EPOCH":1924,"BSTAR":2.8147227e-5,"MEAN_MOTION_DOT":3.0e-7,"MEAN_MOTION_DDOT":0},{"OBJECT_NAME":"QIANFAN-95","OBJECT_ID":"2025-233E","EPOCH":"2026-03-05T14:32:07.372896","MEAN_MOTION":13.51015275,"ECCENTRICITY":0.00020588,"INCLINATION":88.9935,"RA_OF_ASC_NODE":53.1279,"ARG_OF_PERICENTER":93.4366,"MEAN_ANOMALY":266.702,"EPHEMERIS_TYPE":0,"CLASSIFICATION_TYPE":"U","NORAD_CAT_ID":66037,"ELEMENT_SET_NO":999,"REV_AT_EPOCH":1949,"BSTAR":2.3314517e-5,"MEAN_MOTION_DOT":2.7e-7,"MEAN_MOTION_DDOT":0},{"OBJECT_NAME":"QIANFAN-96","OBJECT_ID":"2025-233F","EPOCH":"2026-03-05T13:21:16.688160","MEAN_MOTION":13.51004743,"ECCENTRICITY":0.00019414,"INCLINATION":88.9932,"RA_OF_ASC_NODE":53.679,"ARG_OF_PERICENTER":94.5886,"MEAN_ANOMALY":265.5487,"EPHEMERIS_TYPE":0,"CLASSIFICATION_TYPE":"U","NORAD_CAT_ID":66038,"ELEMENT_SET_NO":999,"REV_AT_EPOCH":1918,"BSTAR":4.8227591e-5,"MEAN_MOTION_DOT":4.3e-7,"MEAN_MOTION_DDOT":0},{"OBJECT_NAME":"QIANFAN-97","OBJECT_ID":"2025-233G","EPOCH":"2026-03-05T14:44:12.521184","MEAN_MOTION":13.51004102,"ECCENTRICITY":0.00019432,"INCLINATION":88.9935,"RA_OF_ASC_NODE":53.6538,"ARG_OF_PERICENTER":92.1104,"MEAN_ANOMALY":268.0269,"EPHEMERIS_TYPE":0,"CLASSIFICATION_TYPE":"U","NORAD_CAT_ID":66039,"ELEMENT_SET_NO":999,"REV_AT_EPOCH":1920,"BSTAR":2.8214125e-5,"MEAN_MOTION_DOT":3.0e-7,"MEAN_MOTION_DDOT":0},{"OBJECT_NAME":"QIANFAN-98","OBJECT_ID":"2025-233H","EPOCH":"2026-03-05T14:55:58.995840","MEAN_MOTION":13.51004595,"ECCENTRICITY":0.00024515,"INCLINATION":88.9925,"RA_OF_ASC_NODE":53.3951,"ARG_OF_PERICENTER":85.2548,"MEAN_ANOMALY":274.8883,"EPHEMERIS_TYPE":0,"CLASSIFICATION_TYPE":"U","NORAD_CAT_ID":66040,"ELEMENT_SET_NO":999,"REV_AT_EPOCH":1934,"BSTAR":5.3715174e-5,"MEAN_MOTION_DOT":4.7e-7,"MEAN_MOTION_DDOT":0},{"OBJECT_NAME":"QIANFAN-99","OBJECT_ID":"2025-233J","EPOCH":"2026-03-05T13:15:19.548576","MEAN_MOTION":13.51004856,"ECCENTRICITY":0.00023509,"INCLINATION":88.9936,"RA_OF_ASC_NODE":53.6634,"ARG_OF_PERICENTER":88.7228,"MEAN_ANOMALY":271.4192,"EPHEMERIS_TYPE":0,"CLASSIFICATION_TYPE":"U","NORAD_CAT_ID":66041,"ELEMENT_SET_NO":999,"REV_AT_EPOCH":1919,"BSTAR":4.5269797e-5,"MEAN_MOTION_DOT":4.1e-7,"MEAN_MOTION_DDOT":0},{"OBJECT_NAME":"QIANFAN-100","OBJECT_ID":"2025-233K","EPOCH":"2026-03-05T14:50:05.128224","MEAN_MOTION":13.51005729,"ECCENTRICITY":0.00019164,"INCLINATION":88.9947,"RA_OF_ASC_NODE":53.5721,"ARG_OF_PERICENTER":91.4042,"MEAN_ANOMALY":268.7329,"EPHEMERIS_TYPE":0,"CLASSIFICATION_TYPE":"U","NORAD_CAT_ID":66042,"ELEMENT_SET_NO":999,"REV_AT_EPOCH":1925,"BSTAR":7.9735947e-5,"MEAN_MOTION_DOT":6.3e-7,"MEAN_MOTION_DDOT":0},{"OBJECT_NAME":"QIANFAN-101","OBJECT_ID":"2025-233L","EPOCH":"2026-03-05T13:37:29.929728","MEAN_MOTION":14.26734527,"ECCENTRICITY":0.00168835,"INCLINATION":88.9936,"RA_OF_ASC_NODE":52.4599,"ARG_OF_PERICENTER":119.1172,"MEAN_ANOMALY":241.1715,"EPHEMERIS_TYPE":0,"CLASSIFICATION_TYPE":"U","NORAD_CAT_ID":66043,"ELEMENT_SET_NO":999,"REV_AT_EPOCH":1985,"BSTAR":0.00029966812,"MEAN_MOTION_DOT":7.41e-6,"MEAN_MOTION_DDOT":0},{"OBJECT_NAME":"QIANFAN-102","OBJECT_ID":"2025-233M","EPOCH":"2026-03-05T15:19:31.405152","MEAN_MOTION":13.5099245,"ECCENTRICITY":0.00021014,"INCLINATION":88.9934,"RA_OF_ASC_NODE":53.5666,"ARG_OF_PERICENTER":88.4642,"MEAN_ANOMALY":271.675,"EPHEMERIS_TYPE":0,"CLASSIFICATION_TYPE":"U","NORAD_CAT_ID":66044,"ELEMENT_SET_NO":999,"REV_AT_EPOCH":1925,"BSTAR":1.9820261e-5,"MEAN_MOTION_DOT":2.5e-7,"MEAN_MOTION_DDOT":0}]
